SatCatId,ObjectName,LaunchYear,OrbitalPeriod,LaunchMass,StatusCode,Inclination,Status,UcsData,OrbitClassEstimated,LaunchSiteCountry,Owner,UseType,Purpose,LaunchVehicleClass,TLE1,TLE2,MeanMotion,Eccentricity,OrbitClass
55275,STARLINK-5260,2023,92.35,-1.0,+,70.0,Active,0,LEO,USA,USA,Unknown,Unknown,Falcon,1 55275U 23010G   23136.58335648 -.00061813  00000+0 -10571-2 0  9993,2 55275  69.9997 100.2076 0003463 269.7960 337.8090 15.51240334  1308,15.51240334,0.0003463,LEO
55276,STARLINK-5261,2023,92.35,-1.0,+,70.0,Active,0,LEO,USA,USA,Unknown,Unknown,Falcon,1 55276U 23010H   23136.58335648 -.00069930  00000+0 -11973-2 0  9999,2 55276  69.9996 100.2061 0003349 269.2115 339.2351 15.51245376  1309,15.51245376,0.0003349,LEO
55277,STARLINK-5299,2023,96.06,-1.0,+,70.0,Active,0,LEO,USA,USA,Unknown,Unknown,Falcon,1 55277U 23010J   23136.37790086 -.00002122  00000+0 -16645-3 0  9990,2 55277  69.9985 117.2412 0003016 261.1161  98.9657 14.99148228 18753,14.99148228,0.0003016,LEO
55278,STARLINK-5289,2023,96.06,-1.0,+,70.0,Active,0,LEO,USA,USA,Unknown,Unknown,Falcon,1 55278U 23010K   23136.36067718  .00000321  00000+0  34057-4 0  9994,2 55278  69.9989 117.1798 0003121 266.0550  94.0253 14.99137861 18746,14.99137861,0.0003121,LEO
55279,STARLINK-5323,2023,96.06,-1.0,+,70.0,Active,0,LEO,USA,USA,Unknown,Unknown,Falcon,1 55279U 23010L   23136.37480549  .00000343  00000+0  35839-4 0  9990,2 55279  69.9986 117.2304 0002936 267.3599  92.7225 14.99136175 18750,14.99136175,0.0002936,LEO
55280,STARLINK-5331,2023,96.11,-1.0,+,70.0,Active,0,LEO,USA,USA,Unknown,Unknown,Falcon,1 55280U 23010M   23136.35507712  .00000960  00000+0  88255-4 0  9997,2 55280  69.9987 117.1557 0003304 268.7161  91.3620 14.98326626 18746,14.98326626,0.0003304,LEO
55281,STARLINK-5298,2023,96.06,-1.0,+,70.0,Active,0,LEO,USA,USA,Unknown,Unknown,Falcon,1 55281U 23010N   23136.58335648 -.00049125  00000+0 -41374-2 0  9997,2 55281  69.9991 116.6595 0002979 270.3049 173.2910 14.98337113  1308,14.98337113,0.0002979,LEO
55282,STARLINK-5330,2023,96.11,-1.0,+,70.0,Active,0,LEO,USA,USA,Unknown,Unknown,Falcon,1 55282U 23010P   23136.34673154  .00000895  00000+0  82844-4 0  9997,2 55282  69.9995 117.1259 0003261 268.8505  91.2280 14.98324797 18749,14.98324797,0.0003261,LEO
55283,STARLINK-5317,2023,96.06,-1.0,+,70.0,Active,0,LEO,USA,USA,Unknown,Unknown,Falcon,1 55283U 23010Q   23136.36487048  .00001055  00000+0  94286-4 0  9997,2 55283  69.9985 117.1940 0003086 267.7303  92.3503 14.99136538 18740,14.99136538,0.0003086,LEO
55284,STARLINK-5337,2023,96.11,-1.0,+,70.0,Active,0,LEO,USA,USA,Unknown,Unknown,Falcon,1 55284U 23010R   23136.34255424  .00001425  00000+0  12717-3 0  9996,2 55284  69.9993 117.1123 0003349 269.2546  90.8230 14.98326248 18749,14.98326248,0.0003349,LEO
55285,STARLINK-5332,2023,91.72,-1.0,+,70.0,Active,0,LEO,USA,USA,Unknown,Unknown,Falcon,1 55285U 23010S   23136.26928862 -.00000243  00000+0 -25537-6 0  9997,2 55285  69.9982 100.5718 0002973 257.7371 102.3492 15.69927359 20026,15.69927359,0.0002973,LEO
55286,STARLINK-5338,2023,92.36,-1.0,+,70.0,Active,0,LEO,USA,USA,Unknown,Unknown,Falcon,1 55286U 23010T   23136.58335648 -.00059801  00000+0 -10224-2 0  9994,2 55286  69.9998 100.2050 0003472 271.0302 338.2632 15.51238443  1304,15.51238443,0.0003472,LEO
55287,STARLINK-5341,2023,91.72,-1.0,+,70.0,Active,0,LEO,USA,USA,Unknown,Unknown,Falcon,1 55287U 23010U   23136.26175230  .00002074  00000+0  19007-4 0  9997,2 55287  70.0006  98.8320 0003006 266.1152  93.9700 15.69930281 19185,15.69930281,0.0003006,LEO
55288,STARLINK-5311,2023,92.36,-1.0,+,70.0,Active,0,LEO,USA,USA,Unknown,Unknown,Falcon,1 55288U 23010V   23136.58335648 -.00059377  00000+0 -10151-2 0  9993,2 55288  69.9996 100.1985 0003453 269.9556 344.3965 15.51237847  1300,15.51237847,0.0003453,LEO
55289,STARLINK-5320,2023,92.36,-1.0,+,70.0,Active,0,LEO,USA,USA,Unknown,Unknown,Falcon,1 55289U 23010W   23136.58335648 -.00022604  00000+0 -38334-3 0  9991,2 55289  69.9997 100.2042 0003284 272.5499 337.5681 15.51207796  1304,15.51207796,0.0003284,LEO
55290,STARLINK-5266,2023,92.36,-1.0,+,70.0,Active,0,LEO,USA,USA,Unknown,Unknown,Falcon,1 55290U 23010X   23136.58335648 -.00057070  00000+0 -97524-3 0  9994,2 55290  69.9997 100.2015 0003514 273.1427 338.6799 15.51238344  1305,15.51238344,0.0003514,LEO
55291,STARLINK-5327,2023,92.36,-1.0,+,70.0,Active,0,LEO,USA,USA,Unknown,Unknown,Falcon,1 55291U 23010Y   23136.58335648 -.00061424  00000+0 -10504-2 0  9995,2 55291  69.9998 100.2028 0003521 269.8407 341.1383 15.51239472  1300,15.51239472,0.0003521,LEO
55292,STARLINK-5325,2023,92.36,-1.0,+,70.0,Active,0,LEO,USA,USA,Unknown,Unknown,Falcon,1 55292U 23010Z   23136.58335648 -.00059986  00000+0 -10256-2 0  9990,2 55292  69.9999 100.1978 0003429 270.6194 344.5754 15.51238513  1309,15.51238513,0.0003429,LEO
55293,STARLINK-5287,2023,92.36,-1.0,+,70.0,Active,0,LEO,USA,USA,Unknown,Unknown,Falcon,1 55293U 23010AA  23136.58335648 -.00059714  00000+0 -10209-2 0  9998,2 55293  69.9998 100.2000 0003468 270.4334 343.0754 15.51238438  1303,15.51238438,0.0003468,LEO
55294,STARLINK-5286,2023,96.11,-1.0,+,70.0,Active,0,LEO,USA,USA,Unknown,Unknown,Falcon,1 55294U 23010AB  23136.35090386  .00000395  00000+0  40924-4 0  9999,2 55294  69.9992 117.1412 0003113 266.2473  93.8330 14.98329352 18748,14.98329352,0.0003113,LEO
55295,STARLINK-5293,2023,96.06,-1.0,+,70.0,Active,0,LEO,USA,USA,Unknown,Unknown,Falcon,1 55295U 23010AC  23136.59293433 -.00047434  00000+0 -39682-2 0  9998,2 55295  69.9989 116.7849 0003293 271.3906  88.6876 14.98584198 18783,14.98584198,0.0003293,LEO
55296,STARLINK-5285,2023,92.36,-1.0,+,70.0,Active,0,LEO,USA,USA,Unknown,Unknown,Falcon,1 55296U 23010AD  23136.58335648 -.00071468  00000+0 -12239-2 0  9996,2 55296  69.9998 100.1948 0003273 271.2228 346.4972 15.51246628  1300,15.51246628,0.0003273,LEO
55297,STARLINK-5284,2023,92.36,-1.0,+,70.0,Active,0,LEO,USA,USA,Unknown,Unknown,Falcon,1 55297U 23010AE  23136.58335648 -.00058418  00000+0 -99857-3 0  9999,2 55297  69.9997 100.1970 0003426 269.7066 346.3319 15.51237449  1302,15.51237449,0.0003426,LEO
55298,STARLINK-5272,2023,92.36,-1.0,+,70.0,Active,0,LEO,USA,USA,Unknown,Unknown,Falcon,1 55298U 23010AF  23136.58335648 -.00073013  00000+0 -12506-2 0  9993,2 55298  69.9999 100.1936 0003278 270.7805 347.7821 15.51247840  1304,15.5124784,0.0003278,LEO
55299,STARLINK-5270,2023,92.36,-1.0,+,70.0,Active,0,LEO,USA,USA,Unknown,Unknown,Falcon,1 55299U 23010AG  23136.58335648 -.00060131  00000+0 -10281-2 0  9999,2 55299  69.9997 100.1959 0003399 270.6877 346.1929 15.51239088  1307,15.51239088,0.0003399,LEO
55300,STARLINK-5308,2023,92.36,-1.0,+,70.0,Active,0,LEO,USA,USA,Unknown,Unknown,Falcon,1 55300U 23010AH  23136.58335648 -.00072006  00000+0 -12332-2 0  9995,2 55300  69.9996 100.1924 0003249 271.9990 347.4069 15.51246953  1303,15.51246953,0.0003249,LEO
55302,STARLINK-5321,2023,92.36,-1.0,+,70.0,Active,0,LEO,USA,USA,Unknown,Unknown,Falcon,1 55302U 23010AK  23136.58335648 -.00064750  00000+0 -11077-2 0  9999,2 55302  69.9998 100.1916 0003391 271.6389 348.6117 15.51244648  1301,15.51244648,0.0003391,LEO
55303,STARLINK-5322,2023,96.11,-1.0,+,70.0,Active,0,LEO,USA,USA,Unknown,Unknown,Falcon,1 55303U 23010AL  23136.33838260  .00000209  00000+0  25292-4 0  9994,2 55303  69.9993 117.0973 0003175 269.1395  90.9400 14.98327487 18747,14.98327487,0.0003175,LEO
55304,STARLINK-5318,2023,92.36,-1.0,+,70.0,Active,0,LEO,USA,USA,Unknown,Unknown,Falcon,1 55304U 23010AM  23136.58335648 -.00069436  00000+0 -11888-2 0  9997,2 55304  70.0000 100.1906 0003158 270.2047 350.8886 15.51245143  1305,15.51245143,0.0003158,LEO
55305,STARLINK-5316,2023,92.35,-1.0,+,70.0,Active,0,LEO,USA,USA,Unknown,Unknown,Falcon,1 55305U 23010AN  23136.58335648 -.00061113  00000+0 -10450-2 0  9996,2 55305  69.9995 100.2081 0003474 270.1988 335.7200 15.51240084  1306,15.51240084,0.0003474,LEO
55306,STARLINK-5295,2023,91.72,-1.0,+,70.0,Active,0,LEO,USA,USA,Unknown,Unknown,Falcon,1 55306U 23010AP  23136.28830758  .00000176  00000+0  32260-5 0  9992,2 55306  69.9984 100.6424 0002635 268.6707  91.4187 15.69923327 19158,15.69923327,0.0002635,LEO
55307,STARLINK-5288,2023,91.72,-1.0,+,70.0,Active,0,LEO,USA,USA,Unknown,Unknown,Falcon,1 55307U 23010AQ  23136.28841273  .00000736  00000+0  78900-5 0  9990,2 55307  70.0003 100.6431 0002575 270.1304  89.9597 15.69923433 18835,15.69923433,0.0002575,LEO
55308,STARLINK-5292,2023,91.72,-1.0,+,70.0,Active,0,LEO,USA,USA,Unknown,Unknown,Falcon,1 55308U 23010AR  23136.28788136  .00000382  00000+0  49443-5 0  9996,2 55308  69.9979 100.6424 0003058 268.9199  91.1647 15.69930028 18830,15.69930028,0.0003058,LEO
55309,STARLINK-5315,2023,91.72,-1.0,+,70.0,Active,0,LEO,USA,USA,Unknown,Unknown,Falcon,1 55309U 23010AS  23136.28819655  .00000772  00000+0  81880-5 0  9992,2 55309  69.9992 100.6419 0003048 257.9211 102.1643 15.69929459 19153,15.69929459,0.0003048,LEO
55310,STARLINK-5309,2023,91.72,-1.0,+,70.0,Active,0,LEO,USA,USA,Unknown,Unknown,Falcon,1 55310U 23010AT  23136.28798512  .00000809  00000+0  84947-5 0  9990,2 55310  69.9988 100.6419 0003141 268.5952  91.4883 15.69929656 19159,15.69929656,0.0003141,LEO
55311,STARLINK-5312,2023,91.72,-1.0,+,70.0,Active,0,LEO,USA,USA,Unknown,Unknown,Falcon,1 55311U 23010AU  23136.28810037  .00005388  00000+0  46603-4 0  9991,2 55311  69.9992 100.6446 0002755 245.4495 114.6414 15.69899058 18835,15.69899058,0.0002755,LEO
55312,STARLINK-5296,2023,91.72,-1.0,+,70.0,Active,0,LEO,USA,USA,Unknown,Unknown,Falcon,1 55312U 23010AV  23136.28652668 -.00000615  00000+0 -33478-5 0  9993,2 55312  69.9980  98.9028 0003165 266.7864  93.2969 15.69930944 20065,15.69930944,0.0003165,LEO
55313,STARLINK-5313,2023,91.73,-1.0,+,70.0,Active,0,LEO,USA,USA,Unknown,Unknown,Falcon,1 55313U 23010AW  23136.28777584  .00000243  00000+0  37885-5 0  9990,2 55313  69.9985 100.6419 0002867 259.1862 100.9011 15.69929751 18838,15.69929751,0.0002867,LEO
